start=new Date('2023-04-28T00:00:00.000Z').valueOf();
sats=[{"EPOCH":"2023-04-27T16:31:41.842272","PERIOD":"95.434","ARG_OF_PERICENTER":"87.0816","APOAPSIS":"539.940","MEAN_MOTION":"15.08895658","CENTER_NAME":"EARTH","TLE_LINE1":"1 53983U 22125V   23117.68867873  .00014168  00000-0  90509-3 0  9993","REF_FRAME":"TEME","TLE_LINE2":"2 53983  53.2148 224.1273 0000527  87.0816 273.0236 15.08895658 31617","OBJECT_ID":"2022-125V","FILE":"3894778","MEAN_MOTION_DOT":"0.00014168","COUNTRY_CODE":"US","OBJECT_NAME":"STARLINK-5103","EPHEMERIS_TYPE":"0","NORAD_CAT_ID":"53983","ECCENTRICITY":"0.00005270","BSTAR":"0.00090509000000","ELEMENT_SET_NO":"999","MEAN_ELEMENT_THEORY":"SGP4","GP_ID":"230841457","DECAY_DATE":null,"PERIAPSIS":"539.211","RCS_SIZE":"LARGE","MEAN_MOTION_DDOT":"0.0000000000000","SEMIMAJOR_AXIS":"6917.710","RA_OF_ASC_NODE":"224.1273","SITE":"AFWTR","CLASSIFICATION_TYPE":"U","INCLINATION":"53.2148","TIME_SYSTEM":"UTC","OBJECT_TYPE":"PAYLOAD","MEAN_ANOMALY":"273.0236","REV_AT_EPOCH":"3161","LAUNCH_DATE":"2022-10-05"},{"NORAD_CAT_ID":"53984","ECCENTRICITY":"0.00012400","ELEMENT_SET_NO":"999","BSTAR":"0.00052309000000","EPHEMERIS_TYPE":"0","MEAN_ELEMENT_THEORY":"SGP4","COUNTRY_CODE":"US","FILE":"3894778","MEAN_MOTION_DOT":"0.00008049","OBJECT_NAME":"STARLINK-5142","REF_FRAME":"TEME","TLE_LINE2":"2 53984  53.2164 234.2986 0001240 138.1616 221.9471 15.08849696 31476","TLE_LINE1":"1 53984U 22125W   23117.72089980  .00008049  00000-0  52309-3 0  9991","OBJECT_ID":"2022-125W","APOAPSIS":"540.574","ARG_OF_PERICENTER":"138.1616","PERIOD":"95.437","EPOCH":"2023-04-27T17:18:05.742720","CENTER_NAME":"EARTH","MEAN_MOTION":"15.08849696","MEAN_ANOMALY":"221.9471","REV_AT_EPOCH":"3147","OBJECT_TYPE":"PAYLOAD","LAUNCH_DATE":"2022-10-05","SITE":"AFWTR","CLASSIFICATION_TYPE":"U","TIME_SYSTEM":"UTC","INCLINATION":"53.2164","SEMIMAJOR_AXIS":"6917.851","RA_OF_ASC_NODE":"234.2986","GP_ID":"230841577","DECAY_DATE":null,"MEAN_MOTION_DDOT":"0.0000000000000","PERIAPSIS":"538.858","RCS_SIZE":"LARGE"},{"LAUNCH_DATE":"2022-10-05","MEAN_ANOMALY":"316.3135","REV_AT_EPOCH":"3136","OBJECT_TYPE":"PAYLOAD","TIME_SYSTEM":"UTC","INCLINATION":"53.2153","SITE":"AFWTR","CLASSIFICATION_TYPE":"U","RA_OF_ASC_NODE":"235.5357","SEMIMAJOR_AXIS":"6917.812","MEAN_MOTION_DDOT":"0.0000000000000","PERIAPSIS":"538.621","RCS_SIZE":"LARGE","GP_ID":"230838684","DECAY_DATE":null,"MEAN_ELEMENT_THEORY":"SGP4","ECCENTRICITY":"0.00015260","NORAD_CAT_ID":"53985","ELEMENT_SET_NO":"999","BSTAR":"0.00048047000000","EPHEMERIS_TYPE":"0","OBJECT_NAME":"STARLINK-5147","COUNTRY_CODE":"US","FILE":"3894751","MEAN_MOTION_DOT":"0.00007372","OBJECT_ID":"2022-125X","REF_FRAME":"TEME","TLE_LINE2":"2 53985  53.2153 235.5357 0001526  43.7978 316.3135 15.08862435 31360","TLE_LINE1":"1 53985U 22125X   23117.46332816  .00007372  00000-0  48047-3 0  9994","CENTER_NAME":"EARTH","MEAN_MOTION":"15.08862435","APOAPSIS":"540.732","PERIOD":"95.436","ARG_OF_PERICENTER":"43.7978","EPOCH":"2023-04-27T11:07:11.553024"},{"COUNTRY_CODE":"US","MEAN_MOTION_DOT":"0.00018744","FILE":"3894559","OBJECT_NAME":"STARLINK-5119","ELEMENT_SET_NO":"999","BSTAR":"0.00119190000000","NORAD_CAT_ID":"53986","ECCENTRICITY":"0.00010100","EPHEMERIS_TYPE":"0","MEAN_ELEMENT_THEORY":"SGP4","APOAPSIS":"540.371","PERIOD":"95.436","EPOCH":"2023-04-27T11:24:19.115136","ARG_OF_PERICENTER":"106.2084","CENTER_NAME":"EARTH","MEAN_MOTION":"15.08863963","TLE_LINE2":"2 53986  53.2144 224.9309 0001010 106.2084 253.9019 15.08863963 31589","REF_FRAME":"TEME","TLE_LINE1":"1 53986U 22125Y   23117.47522124  .00018744  00000-0  11919-2 0  9991","OBJECT_ID":"2022-125Y","CLASSIFICATION_TYPE":"U","SITE":"AFWTR","INCLINATION":"53.2144","TIME_SYSTEM":"UTC","MEAN_ANOMALY":"253.9019","REV_AT_EPOCH":"3158","OBJECT_TYPE":"PAYLOAD","LAUNCH_DATE":"2022-10-05","DECAY_DATE":null,"GP_ID":"230809839","MEAN_MOTION_DDOT":"0.0000000000000","RCS_SIZE":"LARGE","PERIAPSIS":"538.973","SEMIMAJOR_AXIS":"6917.807","RA_OF_ASC_NODE":"224.9309"},{"APOAPSIS":"540.467","PERIOD":"95.435","EPOCH":"2023-04-27T17:23:25.770048","ARG_OF_PERICENTER":"108.9629","CENTER_NAME":"EARTH","MEAN_MOTION":"15.08881123","TLE_LINE2":"2 53987  53.2152 234.3232 0001225 108.9629 251.1496 15.08881123 31476","REF_FRAME":"TEME","TLE_LINE1":"1 53987U 22125Z   23117.72460382  .00021232  00000-0  13466-2 0  9992","OBJECT_ID":"2022-125Z","COUNTRY_CODE":"US","MEAN_MOTION_DOT":"0.00021232","FILE":"3894771","OBJECT_NAME":"STARLINK-5112","ELEMENT_SET_NO":"999","BSTAR":"0.00134660000000","ECCENTRICITY":"0.00012250","NORAD_CAT_ID":"53987","EPHEMERIS_TYPE":"0","MEAN_ELEMENT_THEORY":"SGP4","DECAY_DATE":null,"GP_ID":"230841176","MEAN_MOTION_DDOT":"0.0000000000000","RCS_SIZE":"LARGE","PERIAPSIS":"538.772","SEMIMAJOR_AXIS":"6917.755","RA_OF_ASC_NODE":"234.3232","CLASSIFICATION_TYPE":"U","SITE":"AFWTR","TIME_SYSTEM":"UTC","INCLINATION":"53.2152","MEAN_ANOMALY":"251.1496","REV_AT_EPOCH":"3147","OBJECT_TYPE":"PAYLOAD","LAUNCH_DATE":"2022-10-05"},{"RA_OF_ASC_NODE":"235.1653","SEMIMAJOR_AXIS":"6917.775","RCS_SIZE":"LARGE","PERIAPSIS":"538.992","MEAN_MOTION_DDOT":"0.0000000000000","DECAY_DATE":null,"GP_ID":"230809862","LAUNCH_DATE":"2022-10-05","OBJECT_TYPE":"PAYLOAD","MEAN_ANOMALY":"244.3971","REV_AT_EPOCH":"3144","TIME_SYSTEM":"UTC","INCLINATION":"53.2136","CLASSIFICATION_TYPE":"U","SITE":"AFWTR","OBJECT_ID":"2022-125AA","TLE_LINE1":"1 53988U 22125AA  23117.51851490  .00023948  00000-0  15162-2 0  9995","TLE_LINE2":"2 53988  53.2136 235.1653 0000937 115.7118 244.3971 15.08874506 31449","REF_FRAME":"TEME","MEAN_MOTION":"15.08874506","CENTER_NAME":"EARTH","PERIOD":"95.435","ARG_OF_PERICENTER":"115.7118","EPOCH":"2023-04-27T12:26:39.687360","APOAPSIS":"540.288","MEAN_ELEMENT_THEORY":"SGP4","EPHEMERIS_TYPE":"0","BSTAR":"0.00151620000000","ELEMENT_SET_NO":"999","ECCENTRICITY":"0.00009370","NORAD_CAT_ID":"53988","OBJECT_NAME":"STARLINK-5113","MEAN_MOTION_DOT":"0.00023948","FILE":"3894560","COUNTRY_CODE":"US"},{"TIME_SYSTEM":"UTC","INCLINATION":"53.2167","CLASSIFICATION_TYPE":"U","SITE":"AFWTR","LAUNCH_DATE":"2022-10-05","OBJECT_TYPE":"PAYLOAD","REV_AT_EPOCH":"3144","MEAN_ANOMALY":"216.9145","RCS_SIZE":"LARGE","PERIAPSIS":"539.057","MEAN_MOTION_DDOT":"0.0000000000000","DECAY_DATE":null,"GP_ID":"230810367","RA_OF_ASC_NODE":"235.1128","SEMIMAJOR_AXIS":"6917.874","OBJECT_NAME":"STARLINK-5115","MEAN_MOTION_DOT":"0.00009730","FILE":"3894561","COUNTRY_CODE":"US","MEAN_ELEMENT_THEORY":"SGP4","EPHEMERIS_TYPE":"0","BSTAR":"0.00062855000000","ELEMENT_SET_NO":"999","NORAD_CAT_ID":"53989","ECCENTRICITY":"0.00009850","MEAN_MOTION":"15.08842124","CENTER_NAME":"EARTH","PERIOD":"95.437","ARG_OF_PERICENTER":"143.1914","EPOCH":"2023-04-27T12:12:07.809408","APOAPSIS":"540.420","OBJECT_ID":"2022-125AB","TLE_LINE1":"1 53989U 22125AB  23117.50842372  .00009730  00000-0  62855-3 0  9999","TLE_LINE2":"2 53989  53.2167 235.1128 0000985 143.1914 216.9145 15.08842124 31442","REF_FRAME":"TEME"},{"TLE_LINE1":"1 53990U 22125AC  23117.58107171  .00018602  00000-0  11828-2 0  9991","REF_FRAME":"TEME","TLE_LINE2":"2 53990  53.2140 234.8459 0000740  99.6850 260.4226 15.08869770 31452","OBJECT_ID":"2022-125AC","EPOCH":"2023-04-27T13:56:44.595744","PERIOD":"95.436","ARG_OF_PERICENTER":"99.6850","APOAPSIS":"540.166","MEAN_MOTION":"15.08869770","CENTER_NAME":"EARTH","EPHEMERIS_TYPE":"0","ECCENTRICITY":"0.00007400","NORAD_CAT_ID":"53990","BSTAR":"0.00118280000000","ELEMENT_SET_NO":"999","MEAN_ELEMENT_THEORY":"SGP4","FILE":"3894775","MEAN_MOTION_DOT":"0.00018602","COUNTRY_CODE":"US","OBJECT_NAME":"STARLINK-5075","SEMIMAJOR_AXIS":"6917.789","RA_OF_ASC_NODE":"234.8459","GP_ID":"230841403","DECAY_DATE":null,"PERIAPSIS":"539.142","RCS_SIZE":"LARGE","MEAN_MOTION_DDOT":"0.0000000000000","OBJECT_TYPE":"PAYLOAD","REV_AT_EPOCH":"3145","MEAN_ANOMALY":"260.4226","LAUNCH_DATE":"2022-10-05","SITE":"AFWTR","CLASSIFICATION_TYPE":"U","INCLINATION":"53.2140","TIME_SYSTEM":"UTC"},{"INCLINATION":"53.2155","TIME_SYSTEM":"UTC","CLASSIFICATION_TYPE":"U","SITE":"AFWTR","LAUNCH_DATE":"2022-10-05","OBJECT_TYPE":"PAYLOAD","MEAN_ANOMALY":"255.5297","REV_AT_EPOCH":"3153","RCS_SIZE":"LARGE","PERIAPSIS":"544.004","MEAN_MOTION_DDOT":"0.0000000000000","DECAY_DATE":null,"GP_ID":"230840186","RA_OF_ASC_NODE":"222.8973","SEMIMAJOR_AXIS":"6922.894","OBJECT_NAME":"STARLINK-5118","MEAN_MOTION_DOT":"0.00004230","FILE":"3894751","COUNTRY_CODE":"US","MEAN_ELEMENT_THEORY":"SGP4","EPHEMERIS_TYPE":"0","ELEMENT_SET_NO":"999","BSTAR":"0.00029634000000","NORAD_CAT_ID":"53991","ECCENTRICITY":"0.00010910","MEAN_MOTION":"15.07201274","CENTER_NAME":"EARTH","PERIOD":"95.541","ARG_OF_PERICENTER":"104.5815","EPOCH":"2023-04-27T11:48:54.910944","APOAPSIS":"545.514","OBJECT_ID":"2022-125AD","TLE_LINE1":"1 53991U 22125AD  23117.49230221  .00004230  00000-0  29634-3 0  9992","TLE_LINE2":"2 53991  53.2155 222.8973 0001091 104.5815 255.5297 15.07201274 31534","REF_FRAME":"TEME"},{"CENTER_NAME":"EARTH","MEAN_MOTION":"15.08868954","APOAPSIS":"540.348","PERIOD":"95.436","ARG_OF_PERICENTER":"115.1798","EPOCH":"2023-04-27T12:10:45.577344","OBJECT_ID":"2022-125AE","REF_FRAME":"TEME","TLE_LINE2":"2 53992  53.2145 235.0976 0000999 115.1798 244.9297 15.08868954 31365","TLE_LINE1":"1 53992U 22125AE  23117.50747196  .00025089  00000-0  15876-2 0  9996","OBJECT_NAME":"STARLINK-5108","COUNTRY_CODE":"US","FILE":"3894751","MEAN_MOTION_DOT":"0.00025089","MEAN_ELEMENT_THEORY":"SGP4","ECCENTRICITY":"0.00009990","NORAD_CAT_ID":"53992","BSTAR":"0.00158760000000","ELEMENT_SET_NO":"999","EPHEMERIS_TYPE":"0","MEAN_MOTION_DDOT":"0.0000000000000","PERIAPSIS":"538.966","RCS_SIZE":"LARGE","GP_ID":"230839935","DECAY_DATE":null,"RA_OF_ASC_NODE":"235.0976","SEMIMAJOR_AXIS":"6917.792","TIME_SYSTEM":"UTC","INCLINATION":"53.2145","SITE":"AFWTR","CLASSIFICATION_TYPE":"U","LAUNCH_DATE":"2022-10-05","REV_AT_EPOCH":"3136","MEAN_ANOMALY":"244.9297","OBJECT_TYPE":"PAYLOAD"}];
